*******************************************************************************
JPL/HORIZONS                381 Myrrha (A894 AC)           2020-Jun-22 08:57:35
Rec #:     381 (+COV) Soln.date: 2020-May-20_01:04:35   # obs: 3038 (1894-2020)
 
IAU76/J2000 helio. ecliptic osc. elements (au, days, deg., period=Julian yrs):
 
  EPOCH=  2455510.5 ! 2010-Nov-10.00 (TDB)         Residual RMS= .27617
   EC= .0947409094676564   QR= 2.913644698008101   TP= 2455512.031535299
   OM= 125.3184995484503   W=  138.2156193151147   IN= 12.52595503330062
   A= 3.218575464726582    MA= 359.7385819683256   ADIST= 3.523506231445062
   PER= 5.77436            N= .170690173           ANGMOM= .030722419
   DAN= 3.43215            DDN= 2.97922            L= 264.2189135
   B= 8.3091779            MOID= 1.90980995        TP= 2010-Nov-11.5315352990
 
Asteroid physical parameters (km, seconds, rotational period in hours):
   GM= n.a.                RAD= 63.8195            ROTPER= 6.572
   H= 8.4                  G= .150                 B-V= .683
                           ALBEDO= .064            STYP= Cb
 
ASTEROID comments: 
1: soln ref.= JPL#47, OCC=0
2: source=ORB
*******************************************************************************
 
 
*******************************************************************************
Ephemeris / WWW_USER Mon Jun 22 08:57:35 2020 Pasadena, USA      / Horizons
*******************************************************************************
Target body name: 381 Myrrha (A894 AC)            {source: JPL#47}
Center body name: Solar System Barycenter (0)     {source: DE431}
Center-site name: BODY CENTER
*******************************************************************************
Start time      : A.D. 1969-Jun-28 00:00:00.0000 TDB
Stop  time      : A.D. 2071-May-04 00:00:00.0000 TDB
Step-size       : 7200 minutes
*******************************************************************************
Center geodetic : 0.00000000,0.00000000,0.0000000 {E-lon(deg),Lat(deg),Alt(km)}
Center cylindric: 0.00000000,0.00000000,0.0000000 {E-lon(deg),Dxy(km),Dz(km)}
Center radii    : (undefined)                                                  
Small perturbers: Yes                             {source: SB431-N16}
Output units    : AU-D
Output type     : GEOMETRIC cartesian states
Output format   : 2 (position and velocity)
Reference frame : Ecliptic of J2000.0
*******************************************************************************
Initial IAU76/J2000 heliocentric ecliptic osculating elements (au, days, deg.):
  EPOCH=  2455510.5 ! 2010-Nov-10.00 (TDB)         Residual RMS= .27617        
   EC= .0947409094676564   QR= 2.913644698008101   TP= 2455512.031535299       
   OM= 125.3184995484503   W=  138.2156193151147   IN= 12.52595503330062       
  Equivalent ICRF heliocentric equatorial cartesian coordinates (au, au/d):
   X=-3.062127021567912E-01  Y=-2.798370731948209E+00  Z=-7.514672468442459E-01
  VX= 1.031908890327020E-02 VY=-5.616745140986592E-04 VZ=-2.093672438669177E-03
Asteroid physical parameters (km, seconds, rotational period in hours):        
   GM= n.a.                RAD= 63.8195            ROTPER= 6.572               
   H= 8.4                  G= .150                 B-V= .683                   
                           ALBEDO= .064            STYP= Cb                    
*******************************************************************************
            JDTDB,            Calendar Date (TDB),        delta-T,                      X,                      Y,                      Z,                     VX,                     VY,                     VZ,
******************************************************************************************************************************************************************************************************************
$$SOE
2462660.500000000, A.D. 2030-Jun-08 00:00:00.0000,      69.184734,  2.249421745593313E+00,  2.449170438097311E+00, -7.258534044546103E-01, -6.168084775943118E-03,  6.644839414701433E-03,  2.884239034324749E-04,
2462665.500000000, A.D. 2030-Jun-13 00:00:00.0000,      69.184605,  2.218371355694031E+00,  2.482164030135360E+00, -7.243432614201913E-01, -6.251837995682270E-03,  6.552434677775072E-03,  3.156111258009164E-04,
2462670.500000000, A.D. 2030-Jun-18 00:00:00.0000,      69.184470,  2.186905702000550E+00,  2.514693174446046E+00, -7.226975180089834E-01, -6.334189404904675E-03,  6.459063679210399E-03,  3.426634627313369E-04,
2462675.500000000, A.D. 2030-Jun-23 00:00:00.0000,      69.184333,  2.155031806699879E+00,  2.546753089947010E+00, -7.209168574699033E-01, -6.415133788894568E-03,  6.364746488113871E-03,  3.695773954031801E-04,
2462680.500000000, A.D. 2030-Jun-28 00:00:00.0000,      69.184195,  2.122756717472075E+00,  2.578339095582380E+00, -7.190019804987811E-01, -6.494666164101743E-03,  6.269503045860732E-03,  3.963494636994688E-04,
2462685.500000000, A.D. 2030-Jul-03 00:00:00.0000,      69.184056,  2.090087506350014E+00,  2.609446609682841E+00, -7.169536049474721E-01, -6.572781771902158E-03,  6.173353165668433E-03,  4.229762651385548E-04,
2462690.500000000, A.D. 2030-Jul-08 00:00:00.0000,      69.183916,  2.057031268610673E+00,  2.640071149324617E+00, -7.147724655386376E-01, -6.649476072197819E-03,  6.076316532529569E-03,  4.494544536728853E-04,
2462695.500000000, A.D. 2030-Jul-13 00:00:00.0000,      69.183775,  2.023595121698692E+00,  2.670208329688083E+00, -7.124593135866188E-01, -6.724744736960466E-03,  5.978412703069124E-03,  4.757807384868117E-04,
2462700.500000000, A.D. 2030-Jul-18 00:00:00.0000,      69.183634,  1.989786204181647E+00,  2.699853863415209E+00, -7.100149167240236E-01, -6.798583644043558E-03,  5.879661105250046E-03,  5.019518829213482E-04,
2462705.500000000, A.D. 2030-Jul-23 00:00:00.0000,      69.183497,  1.955611674735374E+00,  2.729003559965544E+00, -7.074400586333924E-01, -6.870988871339674E-03,  5.780081038105009E-03,  5.279647035065519E-04,
2462710.500000000, A.D. 2030-Jul-28 00:00:00.0000,      69.183365,  1.921078711157762E+00,  2.757653324971200E+00, -7.047355387835526E-01, -6.941956691233377E-03,  5.679691671626955E-03,  5.538160690470622E-04,
2462715.500000000, A.D. 2030-Aug-02 00:00:00.0000,      69.183238,  1.886194509409688E+00,  2.785799159591875E+00, -7.019021721705229E-01, -7.011483565270591E-03,  5.578512046901535E-03,  5.795028997074330E-04,
2462720.500000000, A.D. 2030-Aug-07 00:00:00.0000,      69.183116,  1.850966282682210E+00,  2.813437159871199E+00, -6.989407890630578E-01, -7.079566138977840E-03,  5.476561076503998E-03,  6.050221660673799E-04,
2462725.500000000, A.D. 2030-Aug-12 00:00:00.0000,      69.182998,  1.815401260489442E+00,  2.840563516095727E+00, -6.958522347530429E-01, -7.146201236759588E-03,  5.373857545159916E-03,  6.303708881236513E-04,
2462730.500000000, A.D. 2030-Aug-17 00:00:00.0000,      69.182886,  1.779506687786840E+00,  2.867174512157812E+00, -6.926373693110153E-01, -7.211385856830901E-03,  5.270420110626218E-03,  6.555461342394231E-04,
2462735.500000000, A.D. 2030-Aug-22 00:00:00.0000,      69.182784,  1.743289824114782E+00,  2.893266524923335E+00, -6.892970673470499E-01, -7.275117166170362E-03,  5.166267304741945E-03,  6.805450200529746E-04,
2462740.500000000, A.D. 2030-Aug-27 00:00:00.0000,      69.182691,  1.706757942767293E+00,  2.918836023604995E+00, -6.858322177771544E-01, -7.337392495508678E-03,  5.061417534599501E-03,  7.053647073665901E-04,
2462745.500000000, A.D. 2030-Sep-01 00:00:00.0000,      69.182609,  1.669918329985693E+00,  2.943879569141707E+00, -6.822437235952394E-01, -7.398209334379261E-03,  4.955889083812304E-03,  7.300024030315055E-04,
2462750.500000000, A.D. 2030-Sep-06 00:00:00.0000,      69.182535,  1.632778284176784E+00,  2.968393813584584E+00, -6.785325016506562E-01, -7.457565326250680E-03,  4.849700113883407E-03,  7.544553578335369E-04,
2462755.500000000, A.D. 2030-Sep-11 00:00:00.0000,      69.182471,  1.595345115155207E+00,  2.992375499490053E+00, -6.746994824313332E-01, -7.515458263720427E-03,  4.742868665694728E-03,  7.787208653662155E-04,
2462760.500000000, A.D. 2030-Sep-16 00:00:00.0000,      69.182417,  1.557626143409787E+00,  3.015821459320626E+00, -6.707456098525881E-01, -7.571886083717479E-03,  4.635412661043919E-03,  8.027962608938745E-04,
2462765.500000000, A.D. 2030-Sep-21 00:00:00.0000,      69.182375,  1.519628699393762E+00,  3.038728614853019E+00, -6.666718410514988E-01, -7.626846862784073E-03,  4.527349904023122E-03,  8.266789202822791E-04,
2462770.500000000, A.D. 2030-Sep-26 00:00:00.0000,      69.182347,  1.481360122837757E+00,  3.061093976592568E+00, -6.624791461862086E-01, -7.680338812741543E-03,  4.418698082191971E-03,  8.503662590994884E-04,
2462775.500000000, A.D. 2030-Oct-01 00:00:00.0000,      69.182331,  1.442827762083384E+00,  3.082914643194047E+00, -6.581685082395738E-01, -7.732360276719986E-03,  4.309474768053932E-03,  8.738557317348710E-04,
2462780.500000000, A.D. 2030-Oct-06 00:00:00.0000,      69.182327,  1.404038973436658E+00,  3.104187800891006E+00, -6.537409228275414E-01, -7.782909725143488E-03,  4.199697420948019E-03,  8.971448303860049E-04,
2462785.500000000, A.D. 2030-Oct-11 00:00:00.0000,      69.182333,  1.365001120541807E+00,  3.124910722934840E+00, -6.491973980127496E-01, -7.831985751624549E-03,  4.089383388983641E-03,  9.202310840076587E-04,
2462790.500000000, A.D. 2030-Oct-16 00:00:00.0000,      69.182351,  1.325721573775379E+00,  3.145080769043253E+00, -6.445389541232491E-01, -7.879587068971391E-03,  3.978549910879869E-03,  9.431120573195737E-04,
2462795.500000000, A.D. 2030-Oct-21 00:00:00.0000,      69.182383,  1.286207709659871E+00,  3.164695384857886E+00, -6.397666235760492E-01, -7.925712505375207E-03,  3.867214117802135E-03,  9.657853498644614E-04,
